STARLINK-31281          
1 59077U 24041D   26068.09133247 -.00001342  00000+0 -39292-4 0  9990
2 59077  42.9991 313.7740 0000855 184.1324 175.9521 15.27562264114231
REAL                    
1 64875U 25154G   26068.72233414  .00022901  00000+0  82904-3 0  9994
2 64875  97.4133 137.2581 0001853 118.5876 241.5550 15.28408058 34830
